     2.11           N: GPS NAV DATA                         RINEX VERSION / TYPE
teqc  2019Feb25                         20221121 12:24:06UTCPGM / RUN BY / DATE
OSX ker:10.11.6|Core i5|gcc 4.3 -m64|OSX ker:10.10+|=+      COMMENT
    5.5879D-09  1.4901D-08 -5.9605D-08 -1.1921D-07          ION ALPHA
    8.3968D+04  9.8304D+04 -6.5536D+04 -5.2429D+05          ION BETA
   -9.313225746155D-09-2.042810365310D-14   589824     1535 DELTA-UTC: A0,A1,T,W
                                                            END OF HEADER
23 09  6 12  0  0  0.0 3.902101889253D-04 0.000000000000D+00 0.000000000000D+00
    9.500000000000D+01 8.037500000000D+01 4.234104938895D-09 6.781149621872D-01
    4.269182682037D-06 6.189646781422D-03 5.766749382019D-06 5.153603378296D+03
    4.320000000000D+05 1.378357410431D-07 1.451683504788D+00 9.313225746155D-09
    9.701499442621D-01 2.727500000000D+02 2.889761390138D+00-8.049263855577D-09
    2.996553389905D-10 1.000000000000D+00 1.535000000000D+03 0.000000000000D+00
    2.000000000000D+00 0.000000000000D+00-2.002343535423D-08 9.500000000000D+01
    4.248180000000D+05 4.000000000000D+00
29 09  6 12  0  0  0.0 2.924678847194D-05 3.751665644813D-12 0.000000000000D+00
    2.000000000000D+01 8.781250000000D+00 4.612692137142D-09-1.868492646767D+00
    3.222376108170D-07 3.418854787014D-03 8.719041943550D-06 5.153665405273D+03
    4.320000000000D+05-2.048909664154D-08-1.669954169391D+00 1.341104507446D-07
    9.595659587109D-01 2.087187500000D+02-1.316412435142D+00-7.904972130962D-09
    2.917978688382D-10 1.000000000000D+00 1.535000000000D+03 0.000000000000D+00
    2.000000000000D+00 0.000000000000D+00-8.847564458847D-09 2.000000000000D+01
    4.248180000000D+05 4.000000000000D+00
13 09  6 12  0  0  0.0 2.992199733853D-04 7.958078640513D-13 0.000000000000D+00
    5.000000000000D+01 8.028125000000D+01 3.657295198168D-09 1.412387209379D+00
    4.228204488754D-06 4.160414100625D-03 5.535781383514D-06 5.153698486328D+03
    4.320000000000D+05-3.725290298462D-08 1.504091496065D+00-9.872019290924D-08
    9.946436826046D-01 2.887500000000D+02 1.589969663224D+00-7.779966923993D-09
    3.282279577262D-10 1.000000000000D+00 1.535000000000D+03 0.000000000000D+00
    2.000000000000D+00 0.000000000000D+00-1.117587089539D-08 5.000000000000D+01
    4.248180000000D+05 4.000000000000D+00
25 09  6 12  0  0  0.0 4.580952227116D-04 1.818989403546D-11 0.000000000000D+00
    6.600000000000D+01-2.490625000000D+01 4.459828626907D-09-2.735234010276D+00
   -1.182779669762D-06 1.136225624941D-02 1.998618245125D-06 5.153650878906D+03
    4.320000000000D+05 5.960464477539D-08 2.399557327743D+00 2.067536115646D-07
    9.698350423681D-01 3.408437500000D+02-1.208063556628D+00-8.057835641198D-09
    1.371485699313D-10 1.000000000000D+00 1.535000000000D+03 0.000000000000D+00
    2.800000000000D+00 0.000000000000D+00-7.450580596924D-09 6.600000000000D+01
    4.248180000000D+05 4.000000000000D+00
 6 09  6 12  0  0  0.0 1.576486974955D-04 1.341504685115D-11 0.000000000000D+00
    7.700000000000D+01 1.312500000000D+00 5.264147844316D-09 2.904547897530D+00
    3.110617399216D-07 6.000428460538D-03 8.322298526764D-06 5.153702819824D+03
    4.320000000000D+05 2.253800630569D-07-1.741877031416D+00 2.980232238770D-08
    9.334430518899D-01 2.003125000000D+02-1.347136100826D+00-8.209270520497D-09
    2.882262914962D-10 1.000000000000D+00 1.535000000000D+03 0.000000000000D+00
    2.000000000000D+00 0.000000000000D+00-4.656612873077D-09 7.700000000000D+01
    4.248180000000D+05 4.000000000000D+00
 3 09  6 12  0  0  0.0 4.054489545524D-04 5.115907697473D-12 0.000000000000D+00
    4.400000000000D+01-1.375000000000D+00 5.527730252153D-09 4.688915374318D-01
    2.682209014893D-07 1.190405956004D-02 8.387491106987D-06 5.153633142471D+03
    4.320000000000D+05-4.097819328308D-08-1.809617606683D+00 1.154839992523D-07
    9.260050248548D-01 1.983750000000D+02 9.039412695136D-01-8.573214251643D-09
    1.989368579472D-10 1.000000000000D+00 1.535000000000D+03 0.000000000000D+00
    2.000000000000D+00 0.000000000000D+00-4.190951585770D-09 4.400000000000D+01
    4.248180000000D+05 4.000000000000D+00
21 09  6 12  0  0  0.0 8.889939635992D-06-2.160049916711D-12 0.000000000000D+00
    4.600000000000D+01-7.468750000000D+00 5.220217443010D-09-1.871025347099D+00
   -5.401670932770D-07 1.536245120224D-02 5.658715963364D-06 5.153601316452D+03
    4.320000000000D+05 4.842877388000D-08-6.299438479184D-01-2.123415470123D-07
    9.339041358730D-01 2.549062500000D+02-2.593952077956D+00-8.154625387165D-09
   -1.171477368163D-10 1.000000000000D+00 1.535000000000D+03 0.000000000000D+00
    2.000000000000D+00 0.000000000000D+00-1.210719347000D-08 4.600000000000D+01
    4.248180000000D+05 4.000000000000D+00
10 09  6 12  0  0  0.0-1.738406717777D-05-5.684341886081D-13 0.000000000000D+00
    8.200000000000D+01 4.009375000000D+01 4.279106813403D-09 1.741512321550D+00
    2.041459083557D-06 8.575860061683D-03 9.791925549507D-06 5.153619398117D+03
    4.320000000000D+05-1.229345798492D-07 4.227423763683D-01 0.000000000000D+00
    9.584634319634D-01 1.921875000000D+02 6.252960928121D-01-7.860327414187D-09
   -3.553719455251D-10 1.000000000000D+00 1.535000000000D+03 0.000000000000D+00
    2.800000000000D+00 0.000000000000D+00-2.793967723846D-09 8.200000000000D+01
    4.248180000000D+05 4.000000000000D+00
 7 09  6 12  0  0  0.0 1.723505556583D-05-6.821210263297D-13 0.000000000000D+00
    2.400000000000D+01-4.003125000000D+01 4.593405619496D-09-8.957932561505D-01
   -2.196058630943D-06 2.667363034561D-03 2.581626176834D-06 5.153667428970D+03
    4.320000000000D+05 4.842877388000D-08 2.494032774796D+00 2.607703208923D-08
    9.676549740509D-01 3.310000000000D+02 2.873618680152D+00-8.307131739667D-09
    7.821754378894D-11 1.000000000000D+00 1.535000000000D+03 0.000000000000D+00
    2.000000000000D+00 0.000000000000D+00-1.071020960808D-08 2.400000000000D+01
    4.248180000000D+05 4.000000000000D+00
19 09  6 12  0  0  0.0 2.280762419105D-05-1.250555214938D-12 0.000000000000D+00
    6.500000000000D+01 1.656250000000D+00 4.790556688772D-09 1.218560952058D+00
    2.197921276093D-07 5.658113746904D-03 7.562339305878D-06 5.153611541748D+03
    4.320000000000D+05 9.313225746155D-08-1.622128646112D+00-1.862645149231D-09
    9.570294650329D-01 2.248125000000D+02-3.531109429110D-01-8.030334495665D-09
    1.589351917173D-10 1.000000000000D+00 1.535000000000D+03 0.000000000000D+00
    2.000000000000D+00 0.000000000000D+00-1.443549990654D-08 6.500000000000D+01
    4.272120000000D+05 4.000000000000D+00
 8 09  6 12  0  0  0.0-2.073040232062D-04-1.591615728103D-12 0.000000000000D+00
    8.000000000000D+01-4.950000000000D+01 4.136600877459D-09-1.626062905350D+00
   -2.844259142876D-06 1.062481838744D-02 3.322958946228D-06 5.153645172119D+03
    4.320000000000D+05 4.284083843231D-08 2.554707246543D+00-1.825392246246D-07
    9.888958350466D-01 3.326250000000D+02 2.992511711884D+00-8.067836057755D-09
    1.239337337660D-10 1.000000000000D+00 1.535000000000D+03 0.000000000000D+00
    2.000000000000D+00 0.000000000000D+00-3.725290298462D-09 8.000000000000D+01
    4.286820000000D+05 4.000000000000D+00
18 09  6 12  0  0  0.0-4.900898784399D-05 3.183231456205D-12 0.000000000000D+00
    4.900000000000D+01 4.278125000000D+01 4.438042005121D-09 3.129847519238D+00
    2.181157469749D-06 1.048896601424D-02 1.020357012749D-05 5.153606100082D+03
    4.320000000000D+05 2.048909664154D-08 4.279576266558D-01-1.229345798492D-07
    9.425017551641D-01 1.727187500000D+02-2.417385475888D+00-7.765680614625D-09
   -2.650110387735D-10 1.000000000000D+00 1.535000000000D+03 0.000000000000D+00
    2.000000000000D+00 0.000000000000D+00-1.071020960808D-08 4.900000000000D+01
    4.317720000000D+05 4.000000000000D+00
